EUTELSAT QUANTUM        
1 49056U 21069B   25287.21047124  .00000112  00000+0  00000+0 0  9999
2 49056   0.0114 100.8389 0002758 128.0205 277.6341  1.00269999 15462
EUTELSAT KONNECT VHTS   
1 53765U 22110A   25287.27295818  .00000003  00000+0  00000+0 0  9999
2 53765   0.0588  96.6147 0002573  96.6761 290.7356  1.00270593  4366
EUTELSAT HOTBIRD 13F    
1 54048U 22134A   25287.27503819  .00000073  00000+0  00000+0 0  9990
2 54048   0.0601 280.7300 0002037  75.4523 138.9178  1.00271173 10918
EUTELSAT HOTBIRD 13G    
1 54225U 22146A   25287.20362454  .00000073  00000+0  00000+0 0  9991
2 54225   0.0524 237.2658 0001942 305.5257 286.5361  1.00269970  4994
EUTELSAT 10B            
1 54259U 22157A   25287.27443153  .00000054  00000+0  00000+0 0  9992
2 54259   0.0611  93.9254 0001660  47.0224 350.8999  1.00269657 10560
EUTELSAT 36D            
1 59346U 24059A   25287.27937155  .00000142  00000+0  00000+0 0  9995
2 59346   0.0187 226.4877 0000157  59.4256 233.5834  1.00270644  5686
